FIREFLY-1               
1 62701U 25009CW  26204.22401976  .00001298  00000+0  13105-3 0  9999
2 62701  97.7055 281.6049 0003261 190.8564 169.2586 14.92754314 82698
FIREFLY-2               
1 62704U 25009CZ  26204.26897612  .00000815  00000+0  84262-4 0  9999
2 62704  97.7012 281.4142 0005698 334.7168  25.3772 14.92748023 82702
FIREFLY-3               
1 62710U 25009DF  26204.24674695  .00001078  00000+0  10957-3 0  9999
2 62710  97.7046 281.6566 0004390  54.1677 305.9950 14.92814288 82717
