{"fetched_at":"2026-07-23T17:55:27.772Z","source":"https://celestrak.org/NORAD/elements/gp.php?NAME=FIREFLY&FORMAT=JSON","constellation":"pixxel","records":[{"OBJECT_NAME":"FIREFLY-1","OBJECT_ID":"2025-009CW","EPOCH":"2026-07-23T05:22:35.307264","CLASSIFICATION_TYPE":"U","MEAN_MOTION":14.92754314,"ECCENTRICITY":0.00032614,"INCLINATION":97.7055,"RA_OF_ASC_NODE":281.6049,"ARG_OF_PERICENTER":190.8564,"MEAN_ANOMALY":169.2586,"EPHEMERIS_TYPE":0,"NORAD_CAT_ID":62701,"ELEMENT_SET_NO":999,"REV_AT_EPOCH":8269,"BSTAR":0.00013104879,"MEAN_MOTION_DOT":0.00001298,"MEAN_MOTION_DDOT":0},{"OBJECT_NAME":"FIREFLY-2","OBJECT_ID":"2025-009CZ","EPOCH":"2026-07-23T06:27:19.536768","CLASSIFICATION_TYPE":"U","MEAN_MOTION":14.92748023,"ECCENTRICITY":0.00056989,"INCLINATION":97.7012,"RA_OF_ASC_NODE":281.4142,"ARG_OF_PERICENTER":334.7168,"MEAN_ANOMALY":25.3772,"EPHEMERIS_TYPE":0,"NORAD_CAT_ID":62704,"ELEMENT_SET_NO":999,"REV_AT_EPOCH":8270,"BSTAR":0.000084262271,"MEAN_MOTION_DOT":0.00000815,"MEAN_MOTION_DDOT":0},{"OBJECT_NAME":"FIREFLY-3","OBJECT_ID":"2025-009DF","EPOCH":"2026-07-23T05:55:18.936480","CLASSIFICATION_TYPE":"U","MEAN_MOTION":14.92814288,"ECCENTRICITY":0.00043903,"INCLINATION":97.7046,"RA_OF_ASC_NODE":281.6566,"ARG_OF_PERICENTER":54.1677,"MEAN_ANOMALY":305.995,"EPHEMERIS_TYPE":0,"NORAD_CAT_ID":62710,"ELEMENT_SET_NO":999,"REV_AT_EPOCH":8271,"BSTAR":0.00010956537,"MEAN_MOTION_DOT":0.00001078,"MEAN_MOTION_DDOT":0}]}
